{
"type": "FeatureCollection",
"name": "tiny-countries-points",
"crs": { "type": "name", "properties": { "name": "urn:ogc:def:crs:OGC:1.3:CRS84" } },
"features": [
{ "type": "Feature", "properties": { "code": "VGB", "name_de": "Britische Jungferninseln", "name_en": "British Virgin Islands" }, "geometry": { "type": "Point", "coordinates": [ -64.39934961543895, 18.4900011639063 ] } },
{ "type": "Feature", "properties": { "code": "TCA", "name_de": "Turks- und Caicosinseln", "name_en": "Turks and Caicos Islands" }, "geometry": { "type": "Point", "coordinates": [ -71.953904310573876, 21.912993441281742 ] } },
{ "type": "Feature", "properties": { "code": "CUW", "name_de": "Curaçao", "name_en": "Curaçao" }, "geometry": { "type": "Point", "coordinates": [ -68.852705036659131, 12.121956520187553 ] } },
{ "type": "Feature", "properties": { "code": "ABW", "name_de": "Aruba", "name_en": "Aruba" }, "geometry": { "type": "Point", "coordinates": [ -69.975794086596807, 12.513677198447681 ] } },
{ "type": "Feature", "properties": { "code": "CYM", "name_de": "Cayman Islands", "name_en": "Cayman Islands" }, "geometry": { "type": "Point", "coordinates": [ -81.266036294947753, 19.325871895324099 ] } },
{ "type": "Feature", "properties": { "code": "COK", "name_de": "Cookinseln", "name_en": "Cook Islands" }, "geometry": { "type": "Point", "coordinates": [ -159.78922694470387, -21.220086945691605 ] } },
{ "type": "Feature", "properties": { "code": "WSM", "name_de": "Samoa", "name_en": "Samoa" }, "geometry": { "type": "Point", "coordinates": [ -172.413730266883363, -13.637369985140253 ] } },
{ "type": "Feature", "properties": { "code": "ASM", "name_de": "Amerikanisch-Samoa", "name_en": "American Samoa" }, "geometry": { "type": "Point", "coordinates": [ -170.72829845387173, -14.310235459814862 ] } },
{ "type": "Feature", "properties": { "code": "NIU", "name_de": "Niue", "name_en": "Niue" }, "geometry": { "type": "Point", "coordinates": [ -169.869891764277696, -19.054762203887947 ] } },
{ "type": "Feature", "properties": { "code": "TKL", "name_de": "Tokelau", "name_en": "Tokelau" }, "geometry": { "type": "Point", "coordinates": [ -172.485089426760197, -8.564862441025753 ] } },
{ "type": "Feature", "properties": { "code": "WLF", "name_de": "Wallis und Futuna", "name_en": "Wallis and Futuna" }, "geometry": { "type": "Point", "coordinates": [ -176.164162151348592, -13.279760063789581 ] } },
{ "type": "Feature", "properties": { "code": "TON", "name_de": "Tonga", "name_en": "Tonga" }, "geometry": { "type": "Point", "coordinates": [ -175.235332954667541, -21.158187998515473 ] } },
{ "type": "Feature", "properties": { "code": "PYF", "name_de": "Französisch-Polynesien", "name_en": "French Polynesia" }, "geometry": { "type": "Point", "coordinates": [ -149.475495978778554, -17.625004983512099 ] } },
{ "type": "Feature", "properties": { "code": "PCN", "name_de": "Pitcairninseln", "name_en": "Pitcairn Islands" }, "geometry": { "type": "Point", "coordinates": [ -128.317800120960328, -24.364139777771015 ] } },
{ "type": "Feature", "properties": { "code": "ATG", "name_de": "Antigua und Barbuda", "name_en": "Antigua and Barbuda" }, "geometry": { "type": "Point", "coordinates": [ -61.78580425747009, 17.072942158120441 ] } },
{ "type": "Feature", "properties": { "code": "KNA", "name_de": "St. Kitts und Nevis", "name_en": "Saint Kitts and Nevis" }, "geometry": { "type": "Point", "coordinates": [ -62.578065969439649, 17.147172041872864 ] } },
{ "type": "Feature", "properties": { "code": "MAF", "name_de": "Saint-Martin", "name_en": "Saint Martin" }, "geometry": { "type": "Point", "coordinates": [ -63.060390303797817, 18.071158607446876 ] } },
{ "type": "Feature", "properties": { "code": "AIA", "name_de": "Anguilla", "name_en": "Anguilla" }, "geometry": { "type": "Point", "coordinates": [ -63.052636175039652, 18.228321050566194 ] } },
{ "type": "Feature", "properties": { "code": "GLP", "name_de": "Guadeloupe", "name_en": "Guadeloupe" }, "geometry": { "type": "Point", "coordinates": [ -61.66602372907829, 16.179994615132387 ] } },
{ "type": "Feature", "properties": { "code": "DMA", "name_de": "Dominica", "name_en": "Dominica" }, "geometry": { "type": "Point", "coordinates": [ -61.35367574406672, 15.431584086663634 ] } },
{ "type": "Feature", "properties": { "code": "MTQ", "name_de": "Martinique", "name_en": "Martinique" }, "geometry": { "type": "Point", "coordinates": [ -61.029686813196008, 14.684815740954434 ] } },
{ "type": "Feature", "properties": { "code": "LCA", "name_de": "St. Lucia", "name_en": "Saint Lucia" }, "geometry": { "type": "Point", "coordinates": [ -60.977964049176308, 13.87809676253363 ] } },
{ "type": "Feature", "properties": { "code": "VCT", "name_de": "St. Vincent und die Grenadinen", "name_en": "Saint Vincent and the Grenadines" }, "geometry": { "type": "Point", "coordinates": [ -61.201710984935687, 13.231854152880999 ] } },
{ "type": "Feature", "properties": { "code": "GRD", "name_de": "Grenada", "name_en": "Grenada" }, "geometry": { "type": "Point", "coordinates": [ -61.676858345532594, 12.108370660575304 ] } },
{ "type": "Feature", "properties": { "code": "BRB", "name_de": "Barbados", "name_en": "Barbados" }, "geometry": { "type": "Point", "coordinates": [ -59.554305983838844, 13.174672374462602 ] } },
{ "type": "Feature", "properties": { "code": "TTO", "name_de": "Trinidad und Tobago", "name_en": "Trinidad and Tobago" }, "geometry": { "type": "Point", "coordinates": [ -61.255188941565905, 10.43680324164859 ] } },
{ "type": "Feature", "properties": { "code": "STP", "name_de": "São Tomé und Príncipe", "name_en": "São Tomé and Príncipe" }, "geometry": { "type": "Point", "coordinates": [ 6.617198520543866, 0.246806952308191 ] } },
{ "type": "Feature", "properties": { "code": "GBR", "name_de": "Ascension", "name_en": "Ascension" }, "geometry": { "type": "Point", "coordinates": [ -14.362068334482444, -7.939246540570252 ] } },
{ "type": "Feature", "properties": { "code": "SHN", "name_de": "St. Helena", "name_en": "Saint Helena" }, "geometry": { "type": "Point", "coordinates": [ -5.716296101395358, -15.963221612123107 ] } },
{ "type": "Feature", "properties": { "code": "MLT", "name_de": "Malta", "name_en": "Malta" }, "geometry": { "type": "Point", "coordinates": [ 14.438179478988388, 35.882081031796645 ] } },
{ "type": "Feature", "properties": { "code": "BHR", "name_de": "Bahrain", "name_en": "Bahrain" }, "geometry": { "type": "Point", "coordinates": [ 50.553638136605002, 26.06944265390905 ] } },
{ "type": "Feature", "properties": { "code": "MDV", "name_de": "Malediven", "name_en": "Maldives" }, "geometry": { "type": "Point", "coordinates": [ 73.50223056083513, 4.186658727806048 ] } },
{ "type": "Feature", "properties": { "code": "IOT", "name_de": "Britisches Territorium im Indischen Ozean", "name_en": "British Indian Ocean Territory" }, "geometry": { "type": "Point", "coordinates": [ 72.478729494182573, -7.340705873210993 ] } },
{ "type": "Feature", "properties": { "code": "SGP", "name_de": "Singapur", "name_en": "Singapore" }, "geometry": { "type": "Point", "coordinates": [ 103.814819829003227, 1.359363931813562 ] } },
{ "type": "Feature", "properties": { "code": "BRN", "name_de": "Brunei", "name_en": "Brunei" }, "geometry": { "type": "Point", "coordinates": [ 114.567454603389251, 4.434669496170784 ] } },
{ "type": "Feature", "properties": { "code": "PLW", "name_de": "Palau", "name_en": "Palau" }, "geometry": { "type": "Point", "coordinates": [ 134.579241336207929, 7.507494163314107 ] } },
{ "type": "Feature", "properties": { "code": "MNP", "name_de": "Nördliche Marianen", "name_en": "Northern Mariana Islands" }, "geometry": { "type": "Point", "coordinates": [ 145.739263327247045, 15.17463695328189 ] } },
{ "type": "Feature", "properties": { "code": "GUM", "name_de": "Guam", "name_en": "Guam" }, "geometry": { "type": "Point", "coordinates": [ 144.77003842181864, 13.459684857600507 ] } },
{ "type": "Feature", "properties": { "code": "FSM", "name_de": "Föderierte Staaten von Mikronesien", "name_en": "Federated States of Micronesia" }, "geometry": { "type": "Point", "coordinates": [ 158.242015193460702, 6.885941535379288 ] } },
{ "type": "Feature", "properties": { "code": "MHL", "name_de": "Marshallinseln", "name_en": "Marshall Islands" }, "geometry": { "type": "Point", "coordinates": [ 168.728966006411838, 7.313460144816133 ] } },
{ "type": "Feature", "properties": { "code": "KIR", "name_de": "Kiribati", "name_en": "Kiribati" }, "geometry": { "type": "Point", "coordinates": [ 173.135158383166186, 1.364258124187756 ] } },
{ "type": "Feature", "properties": { "code": "NRU", "name_de": "Nauru", "name_en": "Nauru" }, "geometry": { "type": "Point", "coordinates": [ 166.93748256244703, -0.523068535976108 ] } },
{ "type": "Feature", "properties": { "code": "TUV", "name_de": "Tuvalu", "name_en": "Tuvalu" }, "geometry": { "type": "Point", "coordinates": [ 179.203974226233527, -8.499723713165849 ] } },
{ "type": "Feature", "properties": { "code": "VUT", "name_de": "Vanuatu", "name_en": "Vanuatu" }, "geometry": { "type": "Point", "coordinates": [ 166.927066439598889, -15.367957152169708 ] } },
{ "type": "Feature", "properties": { "code": "LBN", "name_de": "Libanon", "name_en": "Lebanon" }, "geometry": { "type": "Point", "coordinates": [ 35.808633535679405, 33.874485871955017 ] } },
{ "type": "Feature", "properties": { "code": "PSE", "name_de": "Westjordanland", "name_en": "West Bank" }, "geometry": { "type": "Point", "coordinates": [ 35.256649385783703, 32.101110747842938 ] } },
{ "type": "Feature", "properties": { "code": "MUS", "name_de": "Mauritius", "name_en": "Mauritius" }, "geometry": { "type": "Point", "coordinates": [ 57.585659958168492, -20.302274672122962 ] } },
{ "type": "Feature", "properties": { "code": "ATF", "name_de": "Französische Süd- und Antarktisgebiete", "name_en": "French Southern and Antarctic Lands" }, "geometry": { "type": "Point", "coordinates": [ 69.225139990869252, -49.338781961635448 ] } },
{ "type": "Feature", "properties": { "code": "COM", "name_de": "Komoren", "name_en": "Comoros" }, "geometry": { "type": "Point", "coordinates": [ 43.337943198143535, -11.715555516231973 ] } },
{ "type": "Feature", "properties": { "code": "SYC", "name_de": "Seychellen", "name_en": "Seychelles" }, "geometry": { "type": "Point", "coordinates": [ 46.441629404244452, -9.402058190564674 ] } },
{ "type": "Feature", "properties": { "code": "FRO", "name_de": "Färöer", "name_en": "Faroe Islands" }, "geometry": { "type": "Point", "coordinates": [ -6.942567803221323, 62.191617760358326 ] } },
{ "type": "Feature", "properties": { "code": "ALA", "name_de": "Åland", "name_en": "Åland" }, "geometry": { "type": "Point", "coordinates": [ 19.996921025630343, 60.234062852565216 ] } },
{ "type": "Feature", "properties": { "code": "NOR", "name_de": "Jan Mayen", "name_en": "Jan Mayen" }, "geometry": { "type": "Point", "coordinates": [ -8.420617438175157, 71.028248806432543 ] } },
{ "type": "Feature", "properties": { "code": "SPM", "name_de": "Saint-Pierre und Miquelon", "name_en": "Saint Pierre and Miquelon" }, "geometry": { "type": "Point", "coordinates": [ -56.315703042343273, 46.857465586140222 ] } },
{ "type": "Feature", "properties": { "code": "BMU", "name_de": "Bermuda", "name_en": "Bermuda" }, "geometry": { "type": "Point", "coordinates": [ -64.747977986307035, 32.307221641280876 ] } },
{ "type": "Feature", "properties": { "code": "PRT", "name_de": "Azoren", "name_en": "Azores" }, "geometry": { "type": "Point", "coordinates": [ -28.423474244011175, 38.482330117709921 ] } },
{ "type": "Feature", "properties": { "code": "ESP", "name_de": "Kanarische Inseln", "name_en": "Canary Islands" }, "geometry": { "type": "Point", "coordinates": [ -16.592772263568634, 28.228989968662177 ] } },
{ "type": "Feature", "properties": { "code": "PRT", "name_de": "Autonome Region Madeira", "name_en": "Madeira" }, "geometry": { "type": "Point", "coordinates": [ -16.959751345358598, 32.745365140496688 ] } },
{ "type": "Feature", "properties": { "code": "LUX", "name_de": "Luxemburg", "name_en": "Luxembourg" }, "geometry": { "type": "Point", "coordinates": [ 6.090255806388654, 49.763919280424773 ] } },
{ "type": "Feature", "properties": { "code": "GGY", "name_de": "Guernsey", "name_en": "Guernsey" }, "geometry": { "type": "Point", "coordinates": [ -2.569138549604133, 49.45956768257895 ] } },
{ "type": "Feature", "properties": { "code": "GIB", "name_de": "Gibraltar", "name_en": "Gibraltar" }, "geometry": { "type": "Point", "coordinates": [ -5.369102999177471, 36.127815514325277 ] } },
{ "type": "Feature", "properties": { "code": "JEY", "name_de": "Jersey", "name_en": "Jersey" }, "geometry": { "type": "Point", "coordinates": [ -2.132591982350618, 49.229760444673957 ] } },
{ "type": "Feature", "properties": { "code": "IMN", "name_de": "Isle of Man", "name_en": "Isle of Man" }, "geometry": { "type": "Point", "coordinates": [ -4.530992285637012, 54.20731507606871 ] } },
{ "type": "Feature", "properties": { "code": "LIE", "name_de": "Liechtenstein", "name_en": "Liechtenstein" }, "geometry": { "type": "Point", "coordinates": [ 9.53913850986504, 47.126776082995036 ] } },
{ "type": "Feature", "properties": { "code": "SMR", "name_de": "San Marino", "name_en": "San Marino" }, "geometry": { "type": "Point", "coordinates": [ 12.458793865120413, 43.940942768607897 ] } },
{ "type": "Feature", "properties": { "code": "VAT", "name_de": "Vatikanstadt", "name_en": "Vatican City" }, "geometry": { "type": "Point", "coordinates": [ 12.450446956181111, 41.900703886235135 ] } },
{ "type": "Feature", "properties": { "code": "MCO", "name_de": "Monaco", "name_en": "Monaco" }, "geometry": { "type": "Point", "coordinates": [ 7.397134554240836, 43.750270127450449 ] } },
{ "type": "Feature", "properties": { "code": "AND", "name_de": "Andorra", "name_en": "Andorra" }, "geometry": { "type": "Point", "coordinates": [ 1.547698163518419, 42.536812706414025 ] } },
{ "type": "Feature", "properties": { "code": "VIR", "name_de": "Amerikanische Jungferninseln", "name_en": "United States Virgin Islands" }, "geometry": { "type": "Point", "coordinates": [ -64.912388219766626, 18.348536935773211 ] } },
{ "type": "Feature", "properties": { "code": "PSE", "name_de": "Gazastreifen", "name_en": "Gaza Strip" }, "geometry": { "type": "Point", "coordinates": [ 34.376640221530408, 31.426755899148986 ] } },
{ "type": "Feature", "properties": { "code": "BLM", "name_de": "Saint-Barthélemy", "name_en": "Saint Barthélemy" }, "geometry": { "type": "Point", "coordinates": [ -62.843918620814861, 17.900259910355032 ] } },
{ "type": "Feature", "properties": { "code": "SXM", "name_de": "Sint Maarten", "name_en": "Sint Maarten" }, "geometry": { "type": "Point", "coordinates": [ -63.081062157159693, 18.008024861341028 ] } },
{ "type": "Feature", "properties": { "code": "SGS", "name_de": "Südgeorgien und die Südlichen Sandwichinseln", "name_en": "South Georgia and the South Sandwich Islands" }, "geometry": { "type": "Point", "coordinates": [ -36.792143407672654, -54.274478863695265 ] } },
{ "type": "Feature", "properties": { "code": "BES", "name_de": "Karibische Niederlande", "name_en": "Caribbean Netherlands" }, "geometry": { "type": "Point", "coordinates": [ -68.252057108975222, 12.182538157764933 ] } },
{ "type": "Feature", "properties": { "code": "HKG", "name_de": "Hongkong", "name_en": "Hong Kong" }, "geometry": { "type": "Point", "coordinates": [ 114.107921572821567, 22.437011833699916 ] } },
{ "type": "Feature", "properties": { "code": "MAC", "name_de": "Macau", "name_en": "Macau" }, "geometry": { "type": "Point", "coordinates": [ 113.549639007252409, 22.154250035290829 ] } }
]
}
